NORAD_CAT_ID,OBJECT_NAME,OBJECT_TYPE,EPOCH,MEAN_MOTION,ECCENTRICITY,INCLINATION,RA_OF_ASC_NODE,ARG_OF_PERICENTER,MEAN_ANOMALY,BSTAR,MEAN_MOTION_DOT,MEAN_MOTION_DDOT,TLE_LINE0,TLE_LINE1,TLE_LINE2,SEMIMAJOR_AXIS,PERIOD,APOGEE,PERIGEE,DECAYED
53832.0,STARLINK-4747,PAYLOAD,2023-11-24 14:22:24,15.08835463,0.0001363,53.2185,97.2284,95.1151,264.9996,-6.6454e-05,-1.345e-05,0.0,0 STARLINK-4747,1 53832U 22114Q   23328.59889601 -.00001345  00000-0 -66454-4 0  9999,2 53832  53.2185  97.2284 0001363  95.1151 264.9996 15.08835463 66611,6917.894,95.438,540.702,538.816,0.0
53832.0,STARLINK-4747,PAYLOAD,2023-11-25 14:13:10,15.08849339,0.0001415,53.2184,92.7678,63.927,296.1867,0.00021094,3.072e-05,0.0,0 STARLINK-4747,1 53832U 22114Q   23329.59248561  .00003072  00000-0  21094-3 0  9991,2 53832  53.2184  92.7678 0001415  63.9270 296.1867 15.08849339 66767,6917.852,95.437,540.696,538.738,0.0
53832.0,STARLINK-4747,PAYLOAD,2023-11-25 17:23:56,15.08856363,0.000142,53.2181,92.1722,67.2182,292.896,0.00028255,4.214e-05,0.0,0 STARLINK-4747,1 53832U 22114Q   23329.72496000  .00004214  00000-0  28255-3 0  9994,2 53832  53.2181  92.1722 0001420  67.2182 292.8960 15.08856363 66787,6917.83,95.437,540.678,538.713,0.0
53832.0,STARLINK-4747,PAYLOAD,2023-11-26 12:28:34,15.08851461,0.000128,53.2165,88.606,65.1494,294.9632,0.00029557,4.421e-05,0.0,0 STARLINK-4747,1 53832U 22114Q   23330.51984416  .00004421  00000-0  29557-3 0  9992,2 53832  53.2165  88.6060 0001280  65.1494 294.9632 15.08851461 66368,6917.845,95.437,540.596,538.825,0.0
53832.0,STARLINK-4747,PAYLOAD,2023-11-26 14:03:57,15.08856147,0.0001268,53.2163,88.3067,88.5804,271.5333,0.00032136,4.832e-05,0.0,0 STARLINK-4747,1 53832U 22114Q   23330.58607988  .00004832  00000-0  32136-3 0  9998,2 53832  53.2163  88.3067 0001268  88.5804 271.5333 15.08856147 66916,6917.831,95.437,540.573,538.819,0.0
53832.0,STARLINK-4747,PAYLOAD,2023-11-26 15:39:20,15.08860638,0.0001303,53.2166,88.0091,84.1603,275.9537,0.0003829,5.815e-05,0.0,0 STARLINK-4747,1 53832U 22114Q   23330.65231791  .00005815  00000-0  38290-3 0  9990,2 53832  53.2166  88.0091 0001303  84.1603 275.9537 15.08860638 66387,6917.817,95.436,540.584,538.781,0.0
53832.0,STARLINK-4747,PAYLOAD,2023-11-27 12:19:22,15.08826991,0.0001384,53.2169,84.1414,89.5727,270.5424,-0.00033807,-5.662e-05,0.0,0 STARLINK-4747,1 53832U 22114Q   23331.51345340 -.00005662  00000-0 -33807-3 0  9993,2 53832  53.2169  84.1414 0001384  89.5727 270.5424 15.08826991 66516,6917.92,95.438,540.743,538.828,0.0
53832.0,STARLINK-4747,PAYLOAD,2023-11-27 13:54:45,15.08817089,0.0001242,53.2185,83.8473,66.8091,293.3032,-0.00046586,-7.69e-05,0.0,0 STARLINK-4747,1 53832U 22114Q   23331.57969800 -.00007690  00000-0 -46586-3 0  9993,2 53832  53.2185  83.8473 0001242  66.8091 293.3032 15.08817089 67067,6917.95,95.439,540.675,538.956,0.0
53832.0,STARLINK-4747,PAYLOAD,2023-11-28 12:10:07,15.08909781,5.44e-05,53.2196,79.6862,103.0935,257.0118,0.001502,0.00023743,0.0,0 STARLINK-4747,1 53832U 22114Q   23332.50702984  .00023743  00000-0  15020-2 0  9998,2 53832  53.2196  79.6862 0000544 103.0935 257.0118 15.08909781 66667,6917.667,95.433,539.908,539.156,0.0
53832.0,STARLINK-4747,PAYLOAD,2023-11-28 13:45:32,15.08859356,0.0001116,53.218,79.387,91.8243,268.2877,0.00058158,8.985e-05,0.0,0 STARLINK-4747,1 53832U 22114Q   23332.57329093  .00008985  00000-0  58158-3 0  9992,2 53832  53.2180  79.3870 0001116  91.8243 268.2877 15.08859356 67218,6917.821,95.436,540.458,538.914,0.0
53832.0,STARLINK-4747,PAYLOAD,2023-11-29 13:36:18,15.08892766,0.0001581,53.2187,74.927,90.6848,269.4326,0.0012653,0.00019936,0.0,0 STARLINK-4747,1 53832U 22114Q   23333.56688406  .00019936  00000-0  12653-2 0  9995,2 53832  53.2187  74.9270 0001581  90.6848 269.4326 15.08892766 67364,6917.719,95.434,540.678,538.49,0.0
53832.0,STARLINK-4747,PAYLOAD,2023-11-30 11:51:42,15.08854773,0.0001664,53.2182,70.7605,123.8225,236.2926,1.6255e-06,-2.62e-06,0.0,0 STARLINK-4747,1 53832U 22114Q   23334.49423675 -.00000262  00000-0  16255-5 0  9991,2 53832  53.2182  70.7605 0001664 123.8225 236.2926 15.08854773 66964,6917.835,95.437,540.851,538.549,0.0
53832.0,STARLINK-4747,PAYLOAD,2023-12-01 11:42:30,15.08854497,0.0001572,53.2191,66.3083,109.3176,250.7986,-0.00037491,-6.252e-05,0.0,0 STARLINK-4747,1 53832U 22114Q   23335.48785500 -.00006252  00000-0 -37491-3 0  9998,2 53832  53.2191  66.3083 0001572 109.3176 250.7986 15.08854497 67115,6917.836,95.437,540.789,538.614,0.0
53832.0,STARLINK-4747,PAYLOAD,2023-12-01 13:17:53,15.08855079,0.0001621,53.2195,66.0088,106.9719,253.1451,-0.00034631,-5.798e-05,0.0,0 STARLINK-4747,1 53832U 22114Q   23335.55409080 -.00005798  00000-0 -34631-3 0  9999,2 53832  53.2195  66.0088 0001621 106.9719 253.1451 15.08855079 67663,6917.834,95.437,540.821,538.578,0.0
53832.0,STARLINK-4747,PAYLOAD,2023-12-02 11:33:16,15.08859997,0.0001465,53.2171,61.8416,92.9945,267.1215,0.00062185,9.628e-05,0.0,0 STARLINK-4747,1 53832U 22114Q   23336.48144260  .00009628  00000-0  62185-3 0  9997,2 53832  53.2171  61.8416 0001465  92.9945 267.1215 15.08859997 67268,6917.819,95.436,540.698,538.671,0.0
53832.0,STARLINK-4747,PAYLOAD,2023-12-03 11:24:06,15.0880311,0.000176,53.2175,57.3775,132.439,227.6751,-0.00032621,-5.471e-05,0.0,0 STARLINK-4747,1 53832U 22114Q   23337.47508092 -.00005471  00000-0 -32621-3 0  9990,2 53832  53.2175  57.3775 0001760 132.4390 227.6751 15.08803110 67411,6917.993,95.44,541.076,538.641,0.0
53832.0,STARLINK-4747,PAYLOAD,2023-12-03 12:59:30,15.08798571,0.0001385,53.2176,57.0828,108.9555,251.1587,-0.00036455,-6.078e-05,0.0,0 STARLINK-4747,1 53832U 22114Q   23337.54132603 -.00006078  00000-0 -36455-3 0  9992,2 53832  53.2176  57.0828 0001385 108.9555 251.1587 15.08798571 67965,6918.007,95.44,540.83,538.914,0.0
53832.0,STARLINK-4747,PAYLOAD,2023-12-03 17:45:40,15.08790911,0.0001415,53.2173,56.1892,107.8133,252.3014,-0.00055476,-9.094e-05,0.0,0 STARLINK-4747,1 53832U 22114Q   23337.74005047 -.00009094  00000-0 -55476-3 0  9990,2 53832  53.2173  56.1892 0001415 107.8133 252.3014 15.08790911 67459,6918.03,95.441,540.874,538.917,0.0
53832.0,STARLINK-4747,PAYLOAD,2023-12-04 00:07:12,15.08809925,0.0002514,53.2181,55.0014,142.9241,217.1925,-0.00020435,-3.537e-05,0.0,0 STARLINK-4747,1 53832U 22114Q   23338.00500823 -.00003537  00000-0 -20435-3 0  9995,2 53832  53.2181  55.0014 0002514 142.9241 217.1925 15.08809925 67493,6917.972,95.439,541.576,538.098,0.0
53832.0,STARLINK-4747,PAYLOAD,2023-12-04 11:14:53,15.08840076,0.000186,53.217,52.9216,120.4111,239.7066,0.00010443,1.374e-05,0.0,0 STARLINK-4747,1 53832U 22114Q   23338.46867838  .00001374  00000-0  10443-3 0  9990,2 53832  53.2170  52.9216 0001860 120.4111 239.7066 15.08840076 67567,6917.88,95.438,541.032,538.458,0.0
53832.0,STARLINK-4747,PAYLOAD,2023-12-04 14:25:40,15.08846223,0.00015,53.2167,52.3269,107.3952,252.7205,0.00024865,3.672e-05,0.0,0 STARLINK-4747,1 53832U 22114Q   23338.60115743  .00003672  00000-0  24865-3 0  9993,2 53832  53.2167  52.3269 0001500 107.3952 252.7205 15.08846223 68126,6917.861,95.437,540.764,538.689,0.0
53832.0,STARLINK-4747,PAYLOAD,2023-12-05 11:05:40,15.0886349,0.0001522,53.2169,48.462,119.2291,240.8853,0.00092318,0.00014444,0.0,0 STARLINK-4747,1 53832U 22114Q   23339.46227161  .00014444  00000-0  92318-3 0  9993,2 53832  53.2169  48.4620 0001522 119.2291 240.8853 15.08863490 67713,6917.809,95.436,540.726,538.621,0.0
53832.0,STARLINK-4747,PAYLOAD,2023-12-06 04:34:54,15.08853689,0.0001724,53.2182,45.1922,115.7197,244.3973,0.00029539,4.418e-05,0.0,0 STARLINK-4747,1 53832U 22114Q   23340.19091247  .00004418  00000-0  29539-3 0  9994,2 53832  53.2182  45.1922 0001724 115.7197 244.3973 15.08853689 67820,6917.839,95.437,540.896,538.511,0.0
53832.0,STARLINK-4747,PAYLOAD,2023-12-06 10:56:27,15.0884312,0.0001338,53.217,44.003,91.9137,268.2008,-0.00012282,-2.242e-05,0.0,0 STARLINK-4747,1 53832U 22114Q   23340.45587424 -.00002242  00000-0 -12282-3 0  9992,2 53832  53.2170  44.0030 0001338  91.9137 268.2008 15.08843120 67862,6917.871,95.437,540.661,538.81,0.0
53832.0,STARLINK-4747,PAYLOAD,2023-12-07 09:11:50,15.08856997,0.0001322,53.2167,39.8364,102.7755,257.3385,-0.00011798,-2.166e-05,0.0,0 STARLINK-4747,1 53832U 22114Q   23341.38321962 -.00002166  00000-0 -11798-3 0  9994,2 53832  53.2167  39.8364 0001322 102.7755 257.3385 15.08856997 68000,6917.828,95.436,540.608,538.779,0.0
53832.0,STARLINK-4747,PAYLOAD,2023-12-08 10:38:01,15.08838157,0.0001364,53.2166,35.0785,91.7285,268.3864,0.00011057,1.472e-05,0.0,0 STARLINK-4747,1 53832U 22114Q   23342.44306886  .00001472  00000-0  11057-3 0  9995,2 53832  53.2166  35.0785 0001364  91.7285 268.3864 15.08838157 68164,6917.886,95.438,540.695,538.807,0.0
53832.0,STARLINK-4747,PAYLOAD,2023-12-09 10:28:48,15.08838755,0.0001494,53.2182,30.6218,97.846,262.2702,7.7543e-05,9.46e-06,0.0,0 STARLINK-4747,1 53832U 22114Q   23343.43667124  .00000946  00000-0  77543-4 0  9998,2 53832  53.2182  30.6218 0001494  97.8460 262.2702 15.08838755 68854,6917.884,95.438,540.783,538.716,0.0
53832.0,STARLINK-4747,PAYLOAD,2023-12-10 11:54:58,15.08838221,0.0001471,53.2181,25.8627,95.7317,264.3843,0.00010014,1.306e-05,0.0,0 STARLINK-4747,1 53832U 22114Q   23344.49651272  .00001306  00000-0  10014-3 0  9992,2 53832  53.2181  25.8627 0001471  95.7317 264.3843 15.08838221 68471,6917.886,95.438,540.768,538.733,0.0
53832.0,STARLINK-4747,PAYLOAD,2023-12-11 10:10:22,15.08841916,0.0001419,53.2178,21.6993,87.0814,273.0341,9.8259e-05,1.276e-05,0.0,0 STARLINK-4747,1 53832U 22114Q   23345.42387155  .00001276  00000-0  98259-4 0  9996,2 53832  53.2178  21.6993 0001419  87.0814 273.0341 15.08841916 69156,6917.875,95.437,540.721,538.758,0.0
53832.0,STARLINK-4747,PAYLOAD,2023-12-12 10:01:09,15.08843362,0.0001816,53.2188,17.2397,66.7318,293.3865,0.00011221,1.498e-05,0.0,0 STARLINK-4747,1 53832U 22114Q   23346.41747245  .00001498  00000-0  11221-3 0  9995,2 53832  53.2188  17.2397 0001816  66.7318 293.3865 15.08843362 68769,6917.87,95.437,540.991,538.479,0.0
